start=new Date('2022-09-03T00:00:00.000Z').valueOf();
sats=[{"ELEMENT_SET_NO":"999","LAUNCH_DATE":"2022-08-19","MEAN_MOTION_DDOT":"0.0000000000000","BSTAR":"0.00034608000000","SEMIMAJOR_AXIS":"6727.931","ARG_OF_PERICENTER":"57.0375","PERIOD":"91.534","APOAPSIS":"350.728","TIME_SYSTEM":"UTC","RCS_SIZE":null,"INCLINATION":"53.2159","OBJECT_ID":"2022-101AV","OBJECT_NAME":"STARLINK-4550","COUNTRY_CODE":"US","DECAY_DATE":null,"RA_OF_ASC_NODE":"84.7967","MEAN_ANOMALY":"217.5615","OBJECT_TYPE":"PAYLOAD","GP_ID":"211592631","REV_AT_EPOCH":"130","PERIAPSIS":"348.865","MEAN_MOTION":"15.73187279","TLE_LINE1":"1 53570U 22101AV  22245.91668981  .00048203  00000-0  34608-3 0  9990","REF_FRAME":"TEME","CENTER_NAME":"EARTH","EPHEMERIS_TYPE":"0","FILE":"3555599","SITE":"AFETR","ECCENTRICITY":"0.00013850","CLASSIFICATION_TYPE":"U","TLE_LINE2":"2 53570  53.2159  84.7967 0001385  57.0375 217.5615 15.73187279  1303","MEAN_MOTION_DOT":"0.00048203","EPOCH":"2022-09-02T22:00:01.999584","MEAN_ELEMENT_THEORY":"SGP4","NORAD_CAT_ID":"53570"},{"SITE":"AFETR","FILE":"3555599","EPHEMERIS_TYPE":"0","MEAN_ELEMENT_THEORY":"SGP4","EPOCH":"2022-09-02T22:00:01.999584","NORAD_CAT_ID":"53571","MEAN_MOTION_DOT":"0.00058189","TLE_LINE2":"2 53571  53.2158  84.7971 0001664  61.1793 212.6829 15.73129688  1301","CLASSIFICATION_TYPE":"U","ECCENTRICITY":"0.00016640","REV_AT_EPOCH":"130","PERIAPSIS":"348.841","OBJECT_TYPE":"PAYLOAD","GP_ID":"211592351","MEAN_ANOMALY":"212.6829","RA_OF_ASC_NODE":"84.7971","DECAY_DATE":null,"COUNTRY_CODE":"US","CENTER_NAME":"EARTH","REF_FRAME":"TEME","TLE_LINE1":"1 53571U 22101AW  22245.91668981  .00058189  00000-0  41739-3 0  9998","MEAN_MOTION":"15.73129688","RCS_SIZE":null,"APOAPSIS":"351.080","TIME_SYSTEM":"UTC","PERIOD":"91.537","ARG_OF_PERICENTER":"61.1793","OBJECT_NAME":"STARLINK-4584","OBJECT_ID":"2022-101AW","INCLINATION":"53.2158","MEAN_MOTION_DDOT":"0.0000000000000","LAUNCH_DATE":"2022-08-19","ELEMENT_SET_NO":"999","SEMIMAJOR_AXIS":"6728.096","BSTAR":"0.00041739000000"},{"SITE":"AFETR","FILE":"3555599","EPHEMERIS_TYPE":"0","EPOCH":"2022-09-02T22:00:01.999584","NORAD_CAT_ID":"53572","MEAN_ELEMENT_THEORY":"SGP4","MEAN_MOTION_DOT":"-0.00006774","TLE_LINE2":"2 53572  53.2161  84.7918 0001480  43.2098 233.7579 15.73233655  1308","CLASSIFICATION_TYPE":"U","ECCENTRICITY":"0.00014800","REV_AT_EPOCH":"130","PERIAPSIS":"348.669","OBJECT_TYPE":"PAYLOAD","GP_ID":"211592954","MEAN_ANOMALY":"233.7579","DECAY_DATE":null,"RA_OF_ASC_NODE":"84.7918","COUNTRY_CODE":"US","CENTER_NAME":"EARTH","REF_FRAME":"TEME","TLE_LINE1":"1 53572U 22101AX  22245.91668981 -.00006774  00000-0 -43818-4 0  9995","MEAN_MOTION":"15.73233655","RCS_SIZE":null,"TIME_SYSTEM":"UTC","APOAPSIS":"350.660","PERIOD":"91.531","ARG_OF_PERICENTER":"43.2098","OBJECT_ID":"2022-101AX","OBJECT_NAME":"STARLINK-4555","INCLINATION":"53.2161","MEAN_MOTION_DDOT":"0.0000000000000","LAUNCH_DATE":"2022-08-19","ELEMENT_SET_NO":"999","SEMIMAJOR_AXIS":"6727.799","BSTAR":"-0.00004381800000"},{"INCLINATION":"53.2159","OBJECT_NAME":"STARLINK-4547","OBJECT_ID":"2022-101AY","ARG_OF_PERICENTER":"51.9368","APOAPSIS":"350.687","TIME_SYSTEM":"UTC","PERIOD":"91.531","RCS_SIZE":null,"BSTAR":"0.00016558000000","SEMIMAJOR_AXIS":"6727.799","LAUNCH_DATE":"2022-08-19","ELEMENT_SET_NO":"999","MEAN_MOTION_DDOT":"0.0000000000000","CLASSIFICATION_TYPE":"U","ECCENTRICITY":"0.00015200","TLE_LINE2":"2 53573  53.2159  84.7938 0001520  51.9368 223.7623 15.73233610  1309","MEAN_MOTION_DOT":"0.00022714","NORAD_CAT_ID":"53573","EPOCH":"2022-09-02T22:00:01.999584","MEAN_ELEMENT_THEORY":"SGP4","FILE":"3555599","EPHEMERIS_TYPE":"0","SITE":"AFETR","MEAN_MOTION":"15.73233610","REF_FRAME":"TEME","TLE_LINE1":"1 53573U 22101AY  22245.91668981  .00022714  00000-0  16558-3 0  9996","CENTER_NAME":"EARTH","COUNTRY_CODE":"US","MEAN_ANOMALY":"223.7623","RA_OF_ASC_NODE":"84.7938","DECAY_DATE":null,"REV_AT_EPOCH":"130","PERIAPSIS":"348.642","OBJECT_TYPE":"PAYLOAD","GP_ID":"211592083"},{"LAUNCH_DATE":"2022-08-19","ELEMENT_SET_NO":"999","MEAN_MOTION_DDOT":"0.0000000000000","BSTAR":"0.00016788000000","SEMIMAJOR_AXIS":"6727.891","ARG_OF_PERICENTER":"49.4989","PERIOD":"91.533","APOAPSIS":"350.782","TIME_SYSTEM":"UTC","RCS_SIZE":null,"INCLINATION":"53.2163","OBJECT_ID":"2022-101AZ","OBJECT_NAME":"STARLINK-4559","COUNTRY_CODE":"US","DECAY_DATE":null,"RA_OF_ASC_NODE":"84.7908","MEAN_ANOMALY":"228.6266","GP_ID":"211592809","OBJECT_TYPE":"PAYLOAD","PERIAPSIS":"348.731","REV_AT_EPOCH":"130","MEAN_MOTION":"15.73201350","REF_FRAME":"TEME","TLE_LINE1":"1 53574U 22101AZ  22245.91668981  .00023007  00000-0  16788-3 0  9998","CENTER_NAME":"EARTH","EPHEMERIS_TYPE":"0","FILE":"3555599","SITE":"AFETR","ECCENTRICITY":"0.00015240","CLASSIFICATION_TYPE":"U","TLE_LINE2":"2 53574  53.2163  84.7908 0001524  49.4989 228.6266 15.73201350  1300","MEAN_MOTION_DOT":"0.00023007","MEAN_ELEMENT_THEORY":"SGP4","EPOCH":"2022-09-02T22:00:01.999584","NORAD_CAT_ID":"53574"},{"TLE_LINE2":"2 53575  53.2159  84.7930 0001478  52.3489 224.0102 15.73148216  1307","ECCENTRICITY":"0.00014780","CLASSIFICATION_TYPE":"U","EPOCH":"2022-09-02T22:00:01.999584","MEAN_ELEMENT_THEORY":"SGP4","NORAD_CAT_ID":"53575","MEAN_MOTION_DOT":"0.00030928","SITE":"AFETR","EPHEMERIS_TYPE":"0","FILE":"3555599","MEAN_MOTION":"15.73148216","CENTER_NAME":"EARTH","REF_FRAME":"TEME","TLE_LINE1":"1 53575U 22101BA  22245.91668981  .00030928  00000-0  22446-3 0  9997","DECAY_DATE":null,"RA_OF_ASC_NODE":"84.7930","MEAN_ANOMALY":"224.0102","COUNTRY_CODE":"US","GP_ID":"211591939","OBJECT_TYPE":"PAYLOAD","PERIAPSIS":"348.913","REV_AT_EPOCH":"130","INCLINATION":"53.2159","OBJECT_ID":"2022-101BA","OBJECT_NAME":"STARLINK-4551","ARG_OF_PERICENTER":"52.3489","RCS_SIZE":null,"PERIOD":"91.536","TIME_SYSTEM":"UTC","APOAPSIS":"350.902","SEMIMAJOR_AXIS":"6728.043","BSTAR":"0.00022446000000","ELEMENT_SET_NO":"999","LAUNCH_DATE":"2022-08-19","MEAN_MOTION_DDOT":"0.0000000000000"},{"MEAN_MOTION":"15.73246674","REF_FRAME":"TEME","TLE_LINE1":"1 53576U 22101BB  22245.91668981  .00010181  00000-0  76720-4 0  9992","CENTER_NAME":"EARTH","COUNTRY_CODE":"US","DECAY_DATE":null,"RA_OF_ASC_NODE":"84.7875","MEAN_ANOMALY":"229.7602","OBJECT_TYPE":"PAYLOAD","GP_ID":"211592777","PERIAPSIS":"348.631","REV_AT_EPOCH":"130","ECCENTRICITY":"0.00014810","CLASSIFICATION_TYPE":"U","TLE_LINE2":"2 53576  53.2156  84.7875 0001481  48.8959 229.7602 15.73246674  1303","MEAN_MOTION_DOT":"0.00010181","MEAN_ELEMENT_THEORY":"SGP4","EPOCH":"2022-09-02T22:00:01.999584","NORAD_CAT_ID":"53576","EPHEMERIS_TYPE":"0","FILE":"3555599","SITE":"AFETR","BSTAR":"0.00007672000000","SEMIMAJOR_AXIS":"6727.762","LAUNCH_DATE":"2022-08-19","ELEMENT_SET_NO":"999","MEAN_MOTION_DDOT":"0.0000000000000","INCLINATION":"53.2156","OBJECT_NAME":"STARLINK-4581","OBJECT_ID":"2022-101BB","ARG_OF_PERICENTER":"48.8959","PERIOD":"91.530","TIME_SYSTEM":"UTC","APOAPSIS":"350.623","RCS_SIZE":null},{"BSTAR":"-0.00019876000000","SEMIMAJOR_AXIS":"6727.908","MEAN_MOTION_DDOT":"0.0000000000000","ELEMENT_SET_NO":"999","LAUNCH_DATE":"2022-08-19","OBJECT_NAME":"STARLINK-4553","OBJECT_ID":"2022-101BC","INCLINATION":"53.2159","TIME_SYSTEM":"UTC","APOAPSIS":"350.669","PERIOD":"91.533","RCS_SIZE":null,"ARG_OF_PERICENTER":"45.3422","TLE_LINE1":"1 53577U 22101BC  22245.91668981 -.00028415  00000-0 -19876-3 0  9992","REF_FRAME":"TEME","CENTER_NAME":"EARTH","MEAN_MOTION":"15.73195462","REV_AT_EPOCH":"130","PERIAPSIS":"348.878","OBJECT_TYPE":"PAYLOAD","GP_ID":"211592497","COUNTRY_CODE":"US","MEAN_ANOMALY":"232.2049","DECAY_DATE":null,"RA_OF_ASC_NODE":"84.7898","MEAN_MOTION_DOT":"-0.00028415","EPOCH":"2022-09-02T22:00:01.999584","MEAN_ELEMENT_THEORY":"SGP4","NORAD_CAT_ID":"53577","CLASSIFICATION_TYPE":"U","ECCENTRICITY":"0.00013310","TLE_LINE2":"2 53577  53.2159  84.7898 0001331  45.3422 232.2049 15.73195462  1305","FILE":"3555599","EPHEMERIS_TYPE":"0","SITE":"AFETR"},{"INCLINATION":"53.2160","OBJECT_NAME":"STARLINK-4556","OBJECT_ID":"2022-101BD","ARG_OF_PERICENTER":"53.6722","PERIOD":"91.530","TIME_SYSTEM":"UTC","APOAPSIS":"350.643","RCS_SIZE":null,"BSTAR":"-0.00034459000000","SEMIMAJOR_AXIS":"6727.728","LAUNCH_DATE":"2022-08-19","ELEMENT_SET_NO":"999","MEAN_MOTION_DDOT":"0.0000000000000","ECCENTRICITY":"0.00015600","CLASSIFICATION_TYPE":"U","TLE_LINE2":"2 53578  53.2160  84.7875 0001560  53.6722 225.6507 15.73258516  1307","MEAN_MOTION_DOT":"-0.00048824","MEAN_ELEMENT_THEORY":"SGP4","EPOCH":"2022-09-02T22:00:01.999584","NORAD_CAT_ID":"53578","EPHEMERIS_TYPE":"0","FILE":"3555599","SITE":"AFETR","MEAN_MOTION":"15.73258516","TLE_LINE1":"1 53578U 22101BD  22245.91668981 -.00048824  00000-0 -34459-3 0  9993","REF_FRAME":"TEME","CENTER_NAME":"EARTH","COUNTRY_CODE":"US","DECAY_DATE":null,"RA_OF_ASC_NODE":"84.7875","MEAN_ANOMALY":"225.6507","OBJECT_TYPE":"PAYLOAD","GP_ID":"211592632","REV_AT_EPOCH":"130","PERIAPSIS":"348.544"},{"EPHEMERIS_TYPE":"0","FILE":"3555599","SITE":"AFETR","MEAN_MOTION_DOT":"0.00032976","EPOCH":"2022-09-02T22:00:01.999584","NORAD_CAT_ID":"53579","MEAN_ELEMENT_THEORY":"SGP4","ECCENTRICITY":"0.00012990","CLASSIFICATION_TYPE":"U","TLE_LINE2":"2 53579  53.2160  84.7857 0001299  51.7242 228.2150 15.73207525  1300","OBJECT_TYPE":"PAYLOAD","GP_ID":"211592352","PERIAPSIS":"348.865","REV_AT_EPOCH":"130","COUNTRY_CODE":"US","DECAY_DATE":null,"RA_OF_ASC_NODE":"84.7857","MEAN_ANOMALY":"228.2150","REF_FRAME":"TEME","TLE_LINE1":"1 53579U 22101BE  22245.91668981  .00032976  00000-0  23837-3 0  9991","CENTER_NAME":"EARTH","MEAN_MOTION":"15.73207525","PERIOD":"91.533","TIME_SYSTEM":"UTC","APOAPSIS":"350.613","RCS_SIZE":null,"ARG_OF_PERICENTER":"51.7242","OBJECT_ID":"2022-101BE","OBJECT_NAME":"STARLINK-4580","INCLINATION":"53.2160","MEAN_MOTION_DDOT":"0.0000000000000","ELEMENT_SET_NO":"999","LAUNCH_DATE":"2022-08-19","BSTAR":"0.00023837000000","SEMIMAJOR_AXIS":"6727.874"}];
